0 COSMOS 1176
1 11788U 80034A   13282.48339453 -.00000104  00000-0 -86827-5 0  7851
2 11788 064.8315 032.6541 0059622 243.4662 168.3124 13.92871425703946
0 COSMOS 1176
1 11788U 80034A   13283.48920517 -.00000088  00000-0  29462-5 0  7862
2 11788 064.8316 029.9934 0059551 243.2341 171.7149 13.92871445704088
0 COSMOS 1176
1 11788U 80034A   13283.62175237  .00000010  00000-0  72127-5 0  7870
2 11788 064.8304 029.6484 0059871 242.7540 116.7885 13.92870884704107
0 COSMOS 1176
1 11788U 80034A   13285.80508297 -.00000057  00000-0  26913-4 0  7882
2 11788 064.8317 023.8675 0059432 242.7311 264.1100 13.92871280704400
0 COSMOS 1176
1 11788U 80034A   13286.80852587 -.00000069  00000-0  17889-4 0  7893
2 11788 064.8316 021.2131 0059397 242.5144 255.6234 13.92871313704545
0 COSMOS 1176
1 11788U 80034A   13287.81365625 -.00000064  00000-0  21491-4 0  7908
2 11788 064.8315 018.5543 0059357 242.2897 255.6075 13.92871269704686
0 COSMOS 1176
1 11788U 80034A   13289.08969171 -.00000021  00000-0  54260-4 0  7919
2 11788 064.8314 015.1790 0059288 242.0171 173.9678 13.92871242704860
0 COSMOS 1176
1 11788U 80034A   13290.09779451 -.00000027  00000-0  49519-4 0  7920
2 11788 064.8312 012.5124 0059236 241.7981 188.8484 13.92871342705006
0 COSMOS 1176
1 11788U 80034A   13291.17796735 -.00000057  00000-0  26857-4 0  7938
2 11788 064.8310 009.6550 0059186 241.5604 205.1088 13.92871737705155
0 COSMOS 1176
1 11788U 80034A   13292.46946942 -.00000069  00000-0  17293-4 0  7946
2 11788 064.8308 006.2386 0059135 241.2876 201.0201 13.92871892705338
0 COSMOS 1176
1 11788U 80034A   13293.47476338 -.00000052  00000-0  30412-4 0  7956
2 11788 064.8308 003.5792 0059100 241.0840 201.8054 13.92871900705479
0 COSMOS 1176
1 11788U 80034A   13294.48047315 -.00000048  00000-0  33153-4 0  7968
2 11788 064.8307 000.9188 0059043 240.8609 204.6942 13.92871959705611
0 COSMOS 1176
1 11788U 80034A   13295.48630226 -.00000061  00000-0  23349-4 0  7970
2 11788 064.8306 358.2581 0058997 240.6447 208.1740 13.92872162705758
